BEIDOU-2 IGSO-1 (C06)   
1 36828U 10036A   24260.63536978 -.00000150  00000+0  00000+0 0  9993
2 36828  54.2553 168.7419 0041112 204.7037 317.3773  1.00255360 51808
BEIDOU-2 G4 (C04)       
1 37210U 10057A   24261.60049383 -.00000118  00000+0  00000+0 0  9993
2 37210   2.0639  69.6616 0007433 159.9260 143.7444  1.00270952 50893
BEIDOU-2 IGSO-2 (C07)   
1 37256U 10068A   24261.48756520 -.00000174  00000+0  00000+0 0  9991
2 37256  48.7103 279.6920 0040529 217.5815 143.2502  1.00273281 50402
BEIDOU-2 IGSO-3 (C08)   
1 37384U 11013A   24260.81577278 -.00000160  00000+0  00000+0 0  9996
2 37384  61.4940  46.2302 0032465 174.4429 176.5668  1.00285378 49252
BEIDOU-2 IGSO-4 (C09)   
1 37763U 11038A   24259.70686448 -.00000094  00000+0  00000+0 0  9996
2 37763  54.5620 171.3831 0129048 229.2096 303.3869  1.00288593 48233
BEIDOU-2 IGSO-5 (C10)   
1 37948U 11073A   24260.48430672 -.00000107  00000+0  00000+0 0  9998
2 37948  48.8464 279.3979 0103220 221.6812 125.4673  1.00272220 46726
BEIDOU-2 G5 (C05)       
1 38091U 12008A   24261.53125522  .00000048  00000+0  00000+0 0  9992
2 38091   1.9831  70.4655 0006066 229.3027 307.2739  1.00277377 45975
BEIDOU-2 M3 (C11)       
1 38250U 12018A   24259.67823219 -.00000050  00000+0  00000+0 0  9994
2 38250  56.2742 326.3299 0024335 261.4709  98.3243  1.86233438 84038
BEIDOU-2 M4 (C12)       
1 38251U 12018B   24260.14510273 -.00000049  00000+0  00000+0 0  9990
2 38251  56.1798 325.5791 0015211 261.2259  98.6742  1.86231827 84046
BEIDOU-2 M6 (C14)       
1 38775U 12050B   24260.92858490  .00000041  00000+0  00000+0 0  9990
2 38775  55.9878  84.0975 0011043 348.9412  11.1011  1.86231022 81422
BEIDOU-2 G6 (C02)       
1 38953U 12059A   24261.57869251 -.00000183  00000+0  00000+0 0  9994
2 38953   2.7902  79.7496 0006524 311.2558 258.3871  1.00270969 43515
BEIDOU-3S IGSO-1S (C31) 
1 40549U 15019A   24261.58750101 -.00000154  00000+0  00000+0 0  9999
2 40549  50.4001 303.0990 0036728 197.5049 164.1621  1.00284763 34682
BEIDOU-3S M2S (C58)     
1 40748U 15037A   24260.34480373 -.00000048  00000+0  00000+0 0  9996
2 40748  55.4088 323.9358 0012383 248.8803 111.0606  1.86229031 62227
BEIDOU-3S M1S (C57)     
1 40749U 15037B   24260.61746434 -.00000049  00000+0  00000+0 0  9991
2 40749  55.4114 323.9129 0002998 316.7568  43.2932  1.86227470 62221
BEIDOU-3S IGSO-2S (C56) 
1 40938U 15053A   24261.48221971 -.00000111  00000+0  00000+0 0  9999
2 40938  50.2174 266.3237 0053171 190.0533 169.9093  1.00285151 32962
BEIDOU-2 IGSO-6 (C13)   
1 41434U 16021A   24260.89069218 -.00000130  00000+0  00000+0 0  9996
2 41434  59.3204  44.4303 0052763 221.4826 144.1491  1.00295844 31086
BEIDOU-2 G7 (C03)       
1 41586U 16037A   24261.59557064 -.00000362  00000+0  00000+0 0  9997
2 41586   1.5969  65.8650 0007207 356.0805 260.0071  1.00274922   495
BEIDOU-3 M1 (C19)       
1 43001U 17069A   24261.23145796  .00000039  00000+0  00000+0 0  9993
2 43001  56.1377  84.1959 0007243 308.3809  51.6192  1.86231227 46727
BEIDOU-3 M2 (C20)       
1 43002U 17069B   24260.09502703  .00000046  00000+0  00000+0 0  9990
2 43002  56.1364  84.2697 0005836 345.6184  14.4351  1.86230899 46694
BEIDOU-3 M7 (C27)       
1 43107U 18003A   24259.84328795 -.00000049  00000+0  00000+0 0  9997
2 43107  54.8677 324.5040 0002776  87.3946 272.7085  1.86232388 45440
BEIDOU-3 M8 (C28)       
1 43108U 18003B   24260.85838800 -.00000052  00000+0  00000+0 0  9998
2 43108  54.8597 324.4540 0004707 251.4609 108.5608  1.86230810 45470
BEIDOU-3 M4 (C22)       
1 43207U 18018A   24260.22566520  .00000045  00000+0  00000+0 0  9993
2 43207  56.0957  84.3156 0005022  28.5868 331.5106  1.86231174 44845
BEIDOU-3 M3 (C21)       
1 43208U 18018B   24257.07057877  .00000037  00000+0  00000+0 0  9994
2 43208  56.0924  84.4253 0005367 329.0684  30.9695  1.86231245 44781
BEIDOU-3 M9 (C29)       
1 43245U 18029A   24261.58659939 -.00000052  00000+0  00000+0 0  9993
2 43245  54.7467 322.1428 0002043 233.6475 126.4079  1.86232366 44020
BEIDOU-3 M10 (C30)      
1 43246U 18029B   24260.97919013 -.00000049  00000+0  00000+0 0  9994
2 43246  54.7446 322.1912 0002629 350.3127   9.7566  1.86232805 43994
BEIDOU-2 IGSO-7 (C16)   
1 43539U 18057A   24259.45191521 -.00000167  00000+0  00000+0 0  9998
2 43539  55.1488 168.6041 0078371 233.4773 228.2187  1.00284142 22723
BEIDOU-3 M5 (C23)       
1 43581U 18062A   24259.05560572  .00000009  00000+0  00000+0 0  9997
2 43581  54.1249 204.0751 0004429 290.7175  69.2076  1.86228569 41717
BEIDOU-3 M6 (C24)       
1 43582U 18062B   24260.53186285  .00000006  00000+0  00000+0 0  9995
2 43582  54.1243 204.0143 0005359  12.0970 347.8853  1.86229590 41744
BEIDOU-3 M12 (C26)      
1 43602U 18067A   24261.00188712  .00000006  00000+0  00000+0 0  9993
2 43602  54.2150 202.6881 0007559  23.0696 336.9353  1.86227591 41236
BEIDOU-3 M11 (C25)      
1 43603U 18067B   24260.06134368  .00000005  00000+0  00000+0 0  9996
2 43603  54.2125 202.6848 0004276   9.5125 350.4668  1.86231337 41245
BEIDOU-3 M13 (C32)      
1 43622U 18072A   24258.94940703  .00000046  00000+0  00000+0 0  9990
2 43622  56.0663  83.8863 0004052 308.6967  51.3382  1.86231354 40730
BEIDOU-3 M14 (C33)      
1 43623U 18072B   24261.49961787  .00000036  00000+0  00000+0 0  9999
2 43623  56.0703  83.7946 0002985   6.1845 353.8822  1.86231321 40772
BEIDOU-3 M16 (C35)      
1 43647U 18078A   24260.05096770 -.00000046  00000+0  00000+0 0  9995
2 43647  54.6443 322.2867 0005819  13.3826 346.7062  1.86232119 40261
BEIDOU-3 M15 (C34)      
1 43648U 18078B   24261.25399494 -.00000050  00000+0  00000+0 0  9993
2 43648  54.6391 322.2475 0002474  18.7712 341.3121  1.86232142 40292
BEIDOU-3 G1 (C59)       
1 43683U 18085A   24261.55257767 -.00000285  00000+0  00000+0 0  9999
2 43683   2.4137 106.1923 0002631  26.3190 203.4406  1.00271912 21665
BEIDOU-3 M17 (C36)      
1 43706U 18093A   24259.25759405  .00000008  00000+0  00000+0 0  9996
2 43706  54.2079 204.0133 0009355 287.4429  72.4268  1.86228223 39623
BEIDOU-3 M18 (C37)      
1 43707U 18093B   24260.73306173  .00000006  00000+0  00000+0 0  9990
2 43707  54.2084 203.9549 0007748 316.2860  43.6221  1.86229696 39649
BEIDOU-3 IGSO-1 (C38)   
1 44204U 19023A   24260.81810914 -.00000197  00000+0  00000+0 0  9991
2 44204  57.7813  44.2682 0024123 205.0304 161.1056  1.00273514   811
BEIDOU-2 G8 (C01)       
1 44231U 19027A   24261.51577163 -.00000256  00000+0  00000+0 0  9995
2 44231   1.7003  74.3674 0003366 179.8815  72.8633  1.00267882 19682
BEIDOU-3 IGSO-2 (C39)   
1 44337U 19035A   24260.62257578 -.00000161  00000+0  00000+0 0  9992
2 44337  55.1823 164.4694 0034885 202.8106 331.9584  1.00268395 19296
BEIDOU-3 M24 (C46)      
1 44542U 19061A   24260.26589091  .00000006  00000+0  00000+0 0  9994
2 44542  54.4351 204.2833 0008453 353.0358   6.9219  1.86229303 33896
BEIDOU-3 M23 (C45)      
1 44543U 19061B   24259.85551170  .00000006  00000+0  00000+0 0  9995
2 44543  54.4339 204.2660 0005596 338.1203  19.2570  1.86229405 33888
BEIDOU-3 IGSO-3 (C40)   
1 44709U 19073A   24260.47854828 -.00000140  00000+0  00000+0 0  9998
2 44709  55.8952 287.7577 0041354 190.7072 169.2936  1.00274769 18052
BEIDOU-3 M22 (C44)      
1 44793U 19078A   24258.50029335 -.00000045  00000+0  00000+0 0  9998
2 44793  54.4933 322.2618 0004518  20.6637 339.4248  1.86232094 32714
BEIDOU-3 M21 (C43)      
1 44794U 19078B   24259.16681070 -.00000045  00000+0  00000+0 0  9992
2 44794  54.4662 322.2126 0002518   6.1227 353.9522  1.86232552 32737
BEIDOU-3 M19 (C41)      
1 44864U 19090A   24259.13154292  .00000046  00000+0  00000+0 0  9992
2 44864  56.0001  84.0470 0015382 281.0023 247.8752  1.86231559 32312
BEIDOU-3 M20 (C42)      
1 44865U 19090B   24261.43757907  .00000037  00000+0  00000+0 0  9991
2 44865  56.0042  84.0030 0012957 296.3819  68.2848  1.86231426 32344
BEIDOU-3 G2 (C60)       
1 45344U 20017A   24261.57667771 -.00000148  00000+0  00000+0 0  9993
2 45344   2.4356  32.9063 0003452 179.2234  72.5116  1.00270863 16867
BEIDOU-3 G3 (C61)       
1 45807U 20040A   24261.59546311 -.00000362  00000+0  00000+0 0  9999
2 45807   0.9465  51.5630 0002587 341.0686 289.2778  1.00269824 15674
BEIDOU-3 G4             
1 56564U 23066A   24261.60049383 -.00000124  00000+0  00000+0 0  9997
2 56564   1.8982 288.4740 0005997 232.2700 212.4044  1.00269921  5007
BEIDOU-3 M25            
1 58654U 23207A   24261.39747272  .00000034  00000+0  00000+0 0  9993
2 58654  55.1871  83.9226 0000204 195.4665 164.5969  1.86232133  4967
BEIDOU-3 M26            
1 58655U 23207B   24261.19662063  .00000036  00000+0  00000+0 0  9998
2 58655  55.1889  83.9149 0001663 218.2503 141.8030  1.86231714  4945
